[{"OBJECT_NAME":"STARLINK-5892","OBJECT_ID":"2023-037AS","EPOCH":"2026-03-09T21:10:56.509536","MEAN_MOTION":14.98326028,"ECCENTRICITY":0.00029087,"INCLINATION":69.9982,"RA_OF_ASC_NODE":263.9038,"ARG_OF_PERICENTER":272.9824,"MEAN_ANOMALY":87.1002,"EPHEMERIS_TYPE":0,"CLASSIFICATION_TYPE":"U","NORAD_CAT_ID":55954,"ELEMENT_SET_NO":999,"REV_AT_EPOCH":16450,"BSTAR":-5.3282254e-5,"MEAN_MOTION_DOT":-7.29e-6,"MEAN_MOTION_DDOT":0},{"OBJECT_NAME":"COSMOS 886 DEB","OBJECT_ID":"1976-126AK","EPOCH":"2026-03-09T22:00:36.191520","MEAN_MOTION":13.00228714,"ECCENTRICITY":0.0900765,"INCLINATION":65.8029,"RA_OF_ASC_NODE":6.6624,"ARG_OF_PERICENTER":62.8308,"MEAN_ANOMALY":306.163,"EPHEMERIS_TYPE":0,"CLASSIFICATION_TYPE":"U","NORAD_CAT_ID":9823,"ELEMENT_SET_NO":999,"REV_AT_EPOCH":30216,"BSTAR":0.001213254,"MEAN_MOTION_DOT":2.612e-5,"MEAN_MOTION_DDOT":0}]
